{
  "type": "FeatureCollection",
  "features": [
    {
      "type": "Feature",
      "properties": {
        "norad_id": 31736,
        "name": "FENGYUN 1C DEB",
        "group": "fengyun-1c-debris",
        "lat": -80.67515833187721,
        "lon": 70.656331445587,
        "alt_km": 850.1847006523585,
        "timestamp": "2025-12-26T16:33:55.854530+00:00",
        "meta_object_name": "FENGYUN 1C DEB",
        "meta_object_id": "1999-025CEK",
        "meta_epoch": "2025-12-23T17:39:26.129376",
        "meta_mean_motion": 14.14190163,
        "meta_eccentricity": 0.0011448,
        "meta_inclination": 98.6782,
        "meta_ra_of_asc_node": 359.3318,
        "meta_arg_of_pericenter": 207.2701,
        "meta_mean_anomaly": 152.7873,
        "meta_ephemeris_type": 0,
        "meta_classification_type": "U",
        "meta_norad_cat_id": 31736,
        "meta_element_set_no": 999,
        "meta_rev_at_epoch": 64220,
        "meta_bstar": 0.00013853651,
        "meta_mean_motion_dot": 2.21e-06,
        "meta_mean_motion_ddot": 0,
        "tle_line1": "1 31736U 99025CEK 25357.73571909  .00000221  00000+0  13854-3 0  9996",
        "tle_line2": "2 31736  98.6782 359.3318 0011448 207.2701 152.7873 14.14190163642208"
      },
      "geometry": {
        "type": "Point",
        "coordinates": [
          70.656331445587,
          -80.67515833187721
        ]
      }
    },
    {
      "type": "Feature",
      "properties": {
        "norad_id": 31737,
        "name": "FENGYUN 1C DEB",
        "group": "fengyun-1c-debris",
        "lat": 52.43826704953415,
        "lon": 23.34592825422661,
        "alt_km": 643.9896013251937,
        "timestamp": "2025-12-26T16:33:55.854540+00:00",
        "meta_object_name": "FENGYUN 1C DEB",
        "meta_object_id": "1999-025CEL",
        "meta_epoch": "2025-12-26T01:51:52.536960",
        "meta_mean_motion": 14.68842254,
        "meta_eccentricity": 0.01476107,
        "meta_inclination": 97.9161,
        "meta_ra_of_asc_node": 33.1763,
        "meta_arg_of_pericenter": 333.1256,
        "meta_mean_anomaly": 81.3773,
        "meta_ephemeris_type": 0,
        "meta_classification_type": "U",
        "meta_norad_cat_id": 31737,
        "meta_element_set_no": 999,
        "meta_rev_at_epoch": 98395,
        "meta_bstar": 0.00058636947,
        "meta_mean_motion_dot": 3.99e-05,
        "meta_mean_motion_ddot": 0,
        "tle_line1": "1 31737U 99025CEL 25360.07769140  .00003990  00000+0  58637-3 0  9998",
        "tle_line2": "2 31737  97.9161  33.1763 0147610 333.1256  81.3773 14.68842254983958"
      },
      "geometry": {
        "type": "Point",
        "coordinates": [
          23.34592825422661,
          52.43826704953415
        ]
      }
    },
    {
      "type": "Feature",
      "properties": {
        "norad_id": 31738,
        "name": "FENGYUN 1C DEB",
        "group": "fengyun-1c-debris",
        "lat": -28.308626550959907,
        "lon": -117.17434475830484,
        "alt_km": 1134.5280717941469,
        "timestamp": "2025-12-26T16:33:55.854549+00:00",
        "meta_object_name": "FENGYUN 1C DEB",
        "meta_object_id": "1999-025CEM",
        "meta_epoch": "2025-12-23T21:42:29.765088",
        "meta_mean_motion": 13.85097966,
        "meta_eccentricity": 0.0306503,
        "meta_inclination": 99.3607,
        "meta_ra_of_asc_node": 65.1392,
        "meta_arg_of_pericenter": 70.4545,
        "meta_mean_anomaly": 292.9435,
        "meta_ephemeris_type": 0,
        "meta_classification_type": "U",
        "meta_norad_cat_id": 31738,
        "meta_element_set_no": 999,
        "meta_rev_at_epoch": 62412,
        "meta_bstar": 0.0013333,
        "meta_mean_motion_dot": 2.136e-05,
        "meta_mean_motion_ddot": 0,
        "tle_line1": "1 31738U 99025CEM 25357.90451117  .00002136  00000+0  13333-2 0  9993",
        "tle_line2": "2 31738  99.3607  65.1392 0306503  70.4545 292.9435 13.85097966624129"
      },
      "geometry": {
        "type": "Point",
        "coordinates": [
          -117.17434475830484,
          -28.308626550959907
        ]
      }
    },
    {
      "type": "Feature",
      "properties": {
        "norad_id": 31739,
        "name": "FENGYUN 1C DEB",
        "group": "fengyun-1c-debris",
        "lat": 36.015832284408404,
        "lon": 49.4192782609896,
        "alt_km": 733.1220502057549,
        "timestamp": "2025-12-26T16:33:55.854557+00:00",
        "meta_object_name": "FENGYUN 1C DEB",
        "meta_object_id": "1999-025CEN",
        "meta_epoch": "2025-12-22T21:01:48.237600",
        "meta_mean_motion": 14.19222249,
        "meta_eccentricity": 0.012814,
        "meta_inclination": 98.7461,
        "meta_ra_of_asc_node": 52.0797,
        "meta_arg_of_pericenter": 49.2852,
        "meta_mean_anomaly": 311.9371,
        "meta_ephemeris_type": 0,
        "meta_classification_type": "U",
        "meta_norad_cat_id": 31739,
        "meta_element_set_no": 999,
        "meta_rev_at_epoch": 95630,
        "meta_bstar": 9.2432e-05,
        "meta_mean_motion_dot": 1.67e-06,
        "meta_mean_motion_ddot": 0,
        "tle_line1": "1 31739U 99025CEN 25356.87625275  .00000167  00000+0  92432-4 0  9998",
        "tle_line2": "2 31739  98.7461  52.0797 0128140  49.2852 311.9371 14.19222249956300"
      },
      "geometry": {
        "type": "Point",
        "coordinates": [
          49.4192782609896,
          36.015832284408404
        ]
      }
    },
    {
      "type": "Feature",
      "properties": {
        "norad_id": 31740,
        "name": "FENGYUN 1C DEB",
        "group": "fengyun-1c-debris",
        "lat": 64.52257513055673,
        "lon": 152.80483453716147,
        "alt_km": 731.0508364849966,
        "timestamp": "2025-12-26T16:33:55.854566+00:00",
        "meta_object_name": "FENGYUN 1C DEB",
        "meta_object_id": "1999-025CEP",
        "meta_epoch": "2025-12-24T23:19:56.739072",
        "meta_mean_motion": 14.42257386,
        "meta_eccentricity": 0.00243017,
        "meta_inclination": 99.8206,
        "meta_ra_of_asc_node": 172.1465,
        "meta_arg_of_pericenter": 32.9385,
        "meta_mean_anomaly": 117.9061,
        "meta_ephemeris_type": 0,
        "meta_classification_type": "U",
        "meta_norad_cat_id": 31740,
        "meta_element_set_no": 999,
        "meta_rev_at_epoch": 65251,
        "meta_bstar": 0.0013330711,
        "meta_mean_motion_dot": 4.359e-05,
        "meta_mean_motion_ddot": 0,
        "tle_line1": "1 31740U 99025CEP 25358.97218448  .00004359  00000+0  13331-2 0  9999",
        "tle_line2": "2 31740  99.8206 172.1465 0024301  32.9385 117.9061 14.42257386652513"
      },
      "geometry": {
        "type": "Point",
        "coordinates": [
          152.80483453716147,
          64.52257513055673
        ]
      }
    },
    {
      "type": "Feature",
      "properties": {
        "norad_id": 31742,
        "name": "FENGYUN 1C DEB",
        "group": "fengyun-1c-debris",
        "lat": 47.376628987596966,
        "lon": -148.75097925654296,
        "alt_km": 781.5714729772417,
        "timestamp": "2025-12-26T16:33:55.854575+00:00",
        "meta_object_name": "FENGYUN 1C DEB",
        "meta_object_id": "1999-025CER",
        "meta_epoch": "2025-12-25T01:58:59.652768",
        "meta_mean_motion": 14.39845332,
        "meta_eccentricity": 0.00759259,
        "meta_inclination": 98.9186,
        "meta_ra_of_asc_node": 219.4004,
        "meta_arg_of_pericenter": 292.9263,
        "meta_mean_anomaly": 66.3923,
        "meta_ephemeris_type": 0,
        "meta_classification_type": "U",
        "meta_norad_cat_id": 31742,
        "meta_element_set_no": 999,
        "meta_rev_at_epoch": 96827,
        "meta_bstar": 0.00070014555,
        "meta_mean_motion_dot": 2.225e-05,
        "meta_mean_motion_ddot": 0,
        "tle_line1": "1 31742U 99025CER 25359.08263487  .00002225  00000+0  70015-3 0  9990",
        "tle_line2": "2 31742  98.9186 219.4004 0075925 292.9263  66.3923 14.39845332968274"
      },
      "geometry": {
        "type": "Point",
        "coordinates": [
          -148.75097925654296,
          47.376628987596966
        ]
      }
    },
    {
      "type": "Feature",
      "properties": {
        "norad_id": 31743,
        "name": "FENGYUN 1C DEB",
        "group": "fengyun-1c-debris",
        "lat": 63.139984389423546,
        "lon": -89.20446335523994,
        "alt_km": 790.8704479642538,
        "timestamp": "2025-12-26T16:33:55.854584+00:00",
        "meta_object_name": "FENGYUN 1C DEB",
        "meta_object_id": "1999-025CES",
        "meta_epoch": "2025-12-26T06:55:42.498048",
        "meta_mean_motion": 14.31388211,
        "meta_eccentricity": 0.00373152,
        "meta_inclination": 99.1417,
        "meta_ra_of_asc_node": 288.9119,
        "meta_arg_of_pericenter": 177.9699,
        "meta_mean_anomaly": 339.1169,
        "meta_ephemeris_type": 0,
        "meta_classification_type": "U",
        "meta_norad_cat_id": 31743,
        "meta_element_set_no": 999,
        "meta_rev_at_epoch": 95834,
        "meta_bstar": 0.0013636568,
        "meta_mean_motion_dot": 3.596e-05,
        "meta_mean_motion_ddot": 0,
        "tle_line1": "1 31743U 99025CES 25360.28868632  .00003596  00000+0  13637-2 0  9996",
        "tle_line2": "2 31743  99.1417 288.9119 0037315 177.9699 339.1169 14.31388211958349"
      },
      "geometry": {
        "type": "Point",
        "coordinates": [
          -89.20446335523994,
          63.139984389423546
        ]
      }
    }
  ]
}